APRIZESAT 2             
1 28366U 04025A   26200.01330915  .00000087  00000+0  39896-4 0  9991
2 28366  98.1047   4.1965 0106174 153.3875 207.2818 14.38048657156211
SAUDICOMSAT 1           
1 28369U 04025D   26200.25791906  .00000125  00000+0  39931-4 0  9994
2 28369  98.5779 211.2560 0030882 285.9570  73.8224 14.55495101168791
SAUDICOMSAT 2           
1 28370U 04025E   26200.00607312  .00000084  00000+0  33797-4 0  9994
2 28370  98.6643 213.1521 0055872 162.1772 198.1398 14.49995439164711
APRIZESAT 1             
1 28372U 04025G   26200.27398152  .00000097  00000+0  36011-4 0  9990
2 28372  98.6310 211.8735 0045641  58.6124 301.9523 14.51793325166561
NANOSAT-1               
1 28493U 04049B   26200.14376418  .00000453  00000+0  66894-4 0  9995
2 28493  98.2316 337.5940 0004089 171.7829 188.3450 14.80214867160179
SAUDICOMSAT 7           
1 31119U 07012C   26200.18925227  .00000251  00000+0  53992-4 0  9990
2 31119  98.3802 174.9798 0057027  96.0567 264.7138 14.66138912 27120
SAUDICOMSAT 6           
1 31121U 07012E   26200.17596249  .00000153  00000+0  39390-4 0  9997
2 31121  98.4120 168.2926 0070680 226.5118 133.0194 14.62586246 24869
SAUDICOMSAT 5           
1 31124U 07012H   26200.18598435  .00000298  00000+0  60070-4 0  9999
2 31124  98.3513 175.7174 0047979  26.4815 333.8826 14.68194982 28292
SAUDICOMSAT 3           
1 31125U 07012J   26199.88685062  .00000334  00000+0  62979-4 0  9998
2 31125  98.3167 175.9582 0038040 313.3086  46.4949 14.70752710 29487
SAUDICOMSAT 4           
1 31127U 07012L   26200.19783093  .00000192  00000+0  44981-4 0  9995
2 31127  98.4007 173.4253 0063821 157.2866 203.1183 14.64537291 25977
APRIZESAT 4             
1 35684U 09041D   26200.15188543  .00000304  00000+0  43098-4 0  9999
2 35684  98.1400 276.1081 0042483 216.4052 143.4270 14.83916897916100
APRIZESAT 3             
1 35686U 09041F   26199.99731650  .00000234  00000+0  25930-4 0  9990
2 35686  98.2107 354.7536 0060711 323.2034  36.5025 14.96315666921136
S-NET D                 
1 43186U 18014G   26200.19311843  .00002218  00000+0  11589-3 0  9995
2 43186  97.5323 104.7848 0006222 267.3920  92.6601 15.16937689463615
S-NET B                 
1 43187U 18014H   26200.20520311  .00002407  00000+0  12557-3 0  9996
2 43187  97.5329 104.7843 0006861 261.2512  98.7944 15.16907243463616
S-NET A                 
1 43188U 18014J   26200.19181976  .00002171  00000+0  11345-3 0  9997
2 43188  97.5339 104.9860 0006758 262.4201  97.6264 15.16945824463612
S-NET C                 
1 43189U 18014K   26200.20925301  .00002459  00000+0  12822-3 0  9998
2 43189  97.5355 105.0828 0008147 253.3295 106.7044 15.16898462462165
SALSAT                  
1 46495U 20068K   26200.25708758  .00003822  00000+0  13357-3 0  9992
2 46495  97.8864 205.2860 0009659 178.4698 181.6573 15.30204681320261
OOV-CUBE (TUBSAT-30)    
1 60240U 24128F   26200.25910843  .00000930  00000+0  83634-4 0  9990
2 60240  61.9942 113.7300 0040595 140.9003 219.5034 15.02883153110934
LPNTSAT-001 (IOD-1)     
1 68408U 26065A   26199.90234535  .00001249  00000+0  63360-4 0  9990
2 68408  97.3975  79.7370 0014685 251.9820 107.9814 15.18678997 17078
CHUANG XIN 26 (CX-26)   
1 69972U 26158A   26200.12415116 -.00000052  00000+0  45695-4 0  9996
2 69972  49.9834 263.8373 0004927 312.9322  47.1177 14.25124015  1269
